ONEWEB-0332             
1 49279U 21090A   23294.02320366 -.00000180  00000+0 -51966-3 0  9995
2 49279  87.8941 122.8569 0001837  76.3051 283.8283 13.14501258100122
ONEWEB-0347             
1 49280U 21090B   23293.90429511  .00000126  00000+0  27736-3 0  9991
2 49280  87.9202 107.5795 0002169  76.7457 283.3918 13.20775800102966
ONEWEB-0349             
1 49281U 21090C   23293.93582486  .00000026  00000+0  32705-4 0  9998
2 49281  87.9151 107.6042 0001451  99.5110 260.6188 13.20773524101752
ONEWEB-0353             
1 49282U 21090D   23294.09086634 -.00000076  00000+0 -23983-3 0  9995
2 49282  87.8941 122.8236 0001933  75.8040 284.3305 13.14502118101427
ONEWEB-0356             
1 49283U 21090E   23294.00948692  .00000099  00000+0  21219-3 0  9991
2 49283  87.9144 107.5930 0002498 105.2210 254.9199 13.20770518103052
ONEWEB-0358             
1 49284U 21090F   23293.66004711  .00013224  00000+0  32395-1 0  9997
2 49284  87.9151 107.6397 0002707 128.0100 232.1278 13.20876463102447
ONEWEB-0359             
1 49285U 21090G   23294.03685078  .00000048  00000+0  87288-4 0  9995
2 49285  87.9136 107.5959 0001232  99.3273 260.8000 13.20771141103750
ONEWEB-0360             
1 49286U 21090H   23293.87480579  .00000063  00000+0  12245-3 0  9993
2 49286  87.9145 107.6270 0001498  89.4130 270.7175 13.20769461101768
